ONEWEB-0572             
1 55151U 23004M   25292.34606130  .00000014  00000+0  25356-5 0  9999
2 55151  87.9112  53.7583 0001853  97.1338 263.0004 13.17648479135763
ONEWEB-0573             
1 55152U 23004N   25292.28232983  .00000065  00000+0  13266-3 0  9995
2 55152  87.9216  23.3416 0002602  92.9614 267.1816 13.18685830137941
ONEWEB-0588             
1 55153U 23004P   25292.73098206  .00000025  00000+0  31278-4 0  9994
2 55153  87.9224  23.2420 0002087  90.5284 269.6087 13.18684717138007
ONEWEB-0598             
1 55154U 23004Q   25292.90172833  .00000371  00000+0  10118-2 0  9995
2 55154  87.8823  68.9310 0002202 105.6975 254.4396 13.11419256134402
ONEWEB-0599             
1 55155U 23004R   25292.38318318 -.00000047  00000+0 -15399-3 0  9997
2 55155  87.9114  53.7541 0001758 105.0205 255.1122 13.17648132135779
ONEWEB-0614             
1 55156U 23004S   25292.89665451  .00000171  00000+0  44705-3 0  9996
2 55156  87.8826  68.9417 0001562  83.9931 276.1375 13.11417591134344
ONEWEB-0616             
1 55157U 23004T   25292.72912405  .00000004  00000+0 -22341-4 0  9992
2 55157  87.9113  53.6760 0001590 136.1692 223.9566 13.17648970136036
ONEWEB-0617             
1 55158U 23004U   25292.80847382 -.00000238  00000+0 -70801-3 0  9996
2 55158  87.8822  68.9377 0001763  86.1402 273.9928 13.11419713134356
ONEWEB-0618             
1 55159U 23004V   25292.95216201  .00009100  00000+0  56395-3 0  9990
2 55159  86.9052 274.9943 0016719 103.4533 256.8569 15.09515170145979
ONEWEB-0619             
1 55160U 23004W   25292.38148975 -.00000015  00000+0 -71909-4 0  9998
2 55160  87.9112  53.7195 0001187  93.5437 266.5830 13.17647592135885
ONEWEB-0620             
1 55161U 23004X   25292.80338353 -.00000476  00000+0 -13780-2 0  9999
2 55161  87.8821  68.9593 0001816  95.7384 264.3951 13.11418530134326
ONEWEB-0621             
1 55162U 23004Y   25292.90682049  .00000523  00000+0  14395-2 0  9999
2 55162  87.8835  68.9028 0001434  89.8555 270.2737 13.11417580134316
ONEWEB-0622             
1 55163U 23004Z   25292.91191817  .00000527  00000+0  14505-2 0  9996
2 55163  87.8821  68.9170 0001962  73.8324 286.3020 13.11416423134300
ONEWEB-0623             
1 55164U 23004AA  25292.75612341 -.00000453  00000+0 -11998-2 0  9992
2 55164  87.9105  53.6983 0001527  73.3631 286.7668 13.17645855135923
ONEWEB-0624             
1 55165U 23004AB  25292.75464246  .00000334  00000+0  88667-3 0  9996
2 55165  87.8957  38.3974 0001613  92.2405 267.8908 13.12916128136526
ONEWEB-0625             
1 55166U 23004AC  25292.89785612 -.00000020  00000+0 -83795-4 0  9997
2 55166  87.9103  53.6660 0001605 104.2887 255.8423 13.17648633135933
ONEWEB-0626             
1 55167U 23004AD  25292.81181167  .00000076  00000+0  16373-3 0  9991
2 55167  87.9104  53.6821 0002176 103.3414 256.7960 13.17649403135925
