[{"OBJECT_NAME":"ONEWEB-0572","OBJECT_ID":"2023-004M","EPOCH":"2025-10-19T08:18:19.696320","MEAN_MOTION":13.17648479,"ECCENTRICITY":0.0001853,"INCLINATION":87.9112,"RA_OF_ASC_NODE":53.7583,"ARG_OF_PERICENTER":97.1338,"MEAN_ANOMALY":263.0004,"EPHEMERIS_TYPE":0,"CLASSIFICATION_TYPE":"U","NORAD_CAT_ID":55151,"ELEMENT_SET_NO":999,"REV_AT_EPOCH":13576,"BSTAR":2.535566e-6,"MEAN_MOTION_DOT":1.4e-7,"MEAN_MOTION_DDOT":0},{"OBJECT_NAME":"ONEWEB-0573","OBJECT_ID":"2023-004N","EPOCH":"2025-10-19T06:46:33.297312","MEAN_MOTION":13.1868583,"ECCENTRICITY":0.00026027,"INCLINATION":87.9216,"RA_OF_ASC_NODE":23.3416,"ARG_OF_PERICENTER":92.9614,"MEAN_ANOMALY":267.1816,"EPHEMERIS_TYPE":0,"CLASSIFICATION_TYPE":"U","NORAD_CAT_ID":55152,"ELEMENT_SET_NO":999,"REV_AT_EPOCH":13794,"BSTAR":0.00013266249,"MEAN_MOTION_DOT":6.5e-7,"MEAN_MOTION_DDOT":0},{"OBJECT_NAME":"ONEWEB-0588","OBJECT_ID":"2023-004P","EPOCH":"2025-10-19T17:32:36.849984","MEAN_MOTION":13.18684717,"ECCENTRICITY":0.00020879,"INCLINATION":87.9224,"RA_OF_ASC_NODE":23.242,"ARG_OF_PERICENTER":90.5284,"MEAN_ANOMALY":269.6087,"EPHEMERIS_TYPE":0,"CLASSIFICATION_TYPE":"U","NORAD_CAT_ID":55153,"ELEMENT_SET_NO":999,"REV_AT_EPOCH":13800,"BSTAR":3.1277662e-5,"MEAN_MOTION_DOT":2.5e-7,"MEAN_MOTION_DDOT":0},{"OBJECT_NAME":"ONEWEB-0598","OBJECT_ID":"2023-004Q","EPOCH":"2025-10-19T21:38:29.327712","MEAN_MOTION":13.11419256,"ECCENTRICITY":0.00022028,"INCLINATION":87.8823,"RA_OF_ASC_NODE":68.931,"ARG_OF_PERICENTER":105.6975,"MEAN_ANOMALY":254.4396,"EPHEMERIS_TYPE":0,"CLASSIFICATION_TYPE":"U","NORAD_CAT_ID":55154,"ELEMENT_SET_NO":999,"REV_AT_EPOCH":13440,"BSTAR":0.0010118011,"MEAN_MOTION_DOT":3.71e-6,"MEAN_MOTION_DDOT":0},{"OBJECT_NAME":"ONEWEB-0599","OBJECT_ID":"2023-004R","EPOCH":"2025-10-19T09:11:47.026752","MEAN_MOTION":13.17648132,"ECCENTRICITY":0.00017588,"INCLINATION":87.9114,"RA_OF_ASC_NODE":53.7541,"ARG_OF_PERICENTER":105.0205,"MEAN_ANOMALY":255.1122,"EPHEMERIS_TYPE":0,"CLASSIFICATION_TYPE":"U","NORAD_CAT_ID":55155,"ELEMENT_SET_NO":999,"REV_AT_EPOCH":13577,"BSTAR":-0.0001539876,"MEAN_MOTION_DOT":-4.7e-7,"MEAN_MOTION_DDOT":0},{"OBJECT_NAME":"ONEWEB-0614","OBJECT_ID":"2023-004S","EPOCH":"2025-10-19T21:31:10.949664","MEAN_MOTION":13.11417591,"ECCENTRICITY":0.0001562,"INCLINATION":87.8826,"RA_OF_ASC_NODE":68.9417,"ARG_OF_PERICENTER":83.9931,"MEAN_ANOMALY":276.1375,"EPHEMERIS_TYPE":0,"CLASSIFICATION_TYPE":"U","NORAD_CAT_ID":55156,"ELEMENT_SET_NO":999,"REV_AT_EPOCH":13434,"BSTAR":0.00044704722,"MEAN_MOTION_DOT":1.71e-6,"MEAN_MOTION_DDOT":0},{"OBJECT_NAME":"ONEWEB-0616","OBJECT_ID":"2023-004T","EPOCH":"2025-10-19T17:29:56.317920","MEAN_MOTION":13.1764897,"ECCENTRICITY":0.00015903,"INCLINATION":87.9113,"RA_OF_ASC_NODE":53.676,"ARG_OF_PERICENTER":136.1692,"MEAN_ANOMALY":223.9566,"EPHEMERIS_TYPE":0,"CLASSIFICATION_TYPE":"U","NORAD_CAT_ID":55157,"ELEMENT_SET_NO":999,"REV_AT_EPOCH":13603,"BSTAR":-2.2340896e-5,"MEAN_MOTION_DOT":4.0e-8,"MEAN_MOTION_DDOT":0},{"OBJECT_NAME":"ONEWEB-0617","OBJECT_ID":"2023-004U","EPOCH":"2025-10-19T19:24:12.138048","MEAN_MOTION":13.11419713,"ECCENTRICITY":0.00017638,"INCLINATION":87.8822,"RA_OF_ASC_NODE":68.9377,"ARG_OF_PERICENTER":86.1402,"MEAN_ANOMALY":273.9928,"EPHEMERIS_TYPE":0,"CLASSIFICATION_TYPE":"U","NORAD_CAT_ID":55158,"ELEMENT_SET_NO":999,"REV_AT_EPOCH":13435,"BSTAR":-0.00070800779,"MEAN_MOTION_DOT":-2.38e-6,"MEAN_MOTION_DDOT":0},{"OBJECT_NAME":"ONEWEB-0618","OBJECT_ID":"2023-004V","EPOCH":"2025-10-19T22:51:06.797664","MEAN_MOTION":15.0951517,"ECCENTRICITY":0.00167193,"INCLINATION":86.9052,"RA_OF_ASC_NODE":274.9943,"ARG_OF_PERICENTER":103.4533,"MEAN_ANOMALY":256.8569,"EPHEMERIS_TYPE":0,"CLASSIFICATION_TYPE":"U","NORAD_CAT_ID":55159,"ELEMENT_SET_NO":999,"REV_AT_EPOCH":14597,"BSTAR":0.00056395381,"MEAN_MOTION_DOT":9.1e-5,"MEAN_MOTION_DDOT":0},{"OBJECT_NAME":"ONEWEB-0619","OBJECT_ID":"2023-004W","EPOCH":"2025-10-19T09:09:20.714400","MEAN_MOTION":13.17647592,"ECCENTRICITY":0.00011875,"INCLINATION":87.9112,"RA_OF_ASC_NODE":53.7195,"ARG_OF_PERICENTER":93.5437,"MEAN_ANOMALY":266.583,"EPHEMERIS_TYPE":0,"CLASSIFICATION_TYPE":"U","NORAD_CAT_ID":55160,"ELEMENT_SET_NO":999,"REV_AT_EPOCH":13588,"BSTAR":-7.1909485e-5,"MEAN_MOTION_DOT":-1.5e-7,"MEAN_MOTION_DDOT":0},{"OBJECT_NAME":"ONEWEB-0620","OBJECT_ID":"2023-004X","EPOCH":"2025-10-19T19:16:52.336992","MEAN_MOTION":13.1141853,"ECCENTRICITY":0.0001816,"INCLINATION":87.8821,"RA_OF_ASC_NODE":68.9593,"ARG_OF_PERICENTER":95.7384,"MEAN_ANOMALY":264.3951,"EPHEMERIS_TYPE":0,"CLASSIFICATION_TYPE":"U","NORAD_CAT_ID":55161,"ELEMENT_SET_NO":999,"REV_AT_EPOCH":13432,"BSTAR":-0.0013779726,"MEAN_MOTION_DOT":-4.76e-6,"MEAN_MOTION_DDOT":0},{"OBJECT_NAME":"ONEWEB-0621","OBJECT_ID":"2023-004Y","EPOCH":"2025-10-19T21:45:49.290336","MEAN_MOTION":13.1141758,"ECCENTRICITY":0.00014344,"INCLINATION":87.8835,"RA_OF_ASC_NODE":68.9028,"ARG_OF_PERICENTER":89.8555,"MEAN_ANOMALY":270.2737,"EPHEMERIS_TYPE":0,"CLASSIFICATION_TYPE":"U","NORAD_CAT_ID":55162,"ELEMENT_SET_NO":999,"REV_AT_EPOCH":13431,"BSTAR":0.0014395371,"MEAN_MOTION_DOT":5.23e-6,"MEAN_MOTION_DDOT":0},{"OBJECT_NAME":"ONEWEB-0622","OBJECT_ID":"2023-004Z","EPOCH":"2025-10-19T21:53:09.729888","MEAN_MOTION":13.11416423,"ECCENTRICITY":0.00019624,"INCLINATION":87.8821,"RA_OF_ASC_NODE":68.917,"ARG_OF_PERICENTER":73.8324,"MEAN_ANOMALY":286.302,"EPHEMERIS_TYPE":0,"CLASSIFICATION_TYPE":"U","NORAD_CAT_ID":55163,"ELEMENT_SET_NO":999,"REV_AT_EPOCH":13430,"BSTAR":0.0014504952,"MEAN_MOTION_DOT":5.27e-6,"MEAN_MOTION_DDOT":0},{"OBJECT_NAME":"ONEWEB-0623","OBJECT_ID":"2023-004AA","EPOCH":"2025-10-19T18:08:49.062624","MEAN_MOTION":13.17645855,"ECCENTRICITY":0.0001527,"INCLINATION":87.9105,"RA_OF_ASC_NODE":53.6983,"ARG_OF_PERICENTER":73.3631,"MEAN_ANOMALY":286.7668,"EPHEMERIS_TYPE":0,"CLASSIFICATION_TYPE":"U","NORAD_CAT_ID":55164,"ELEMENT_SET_NO":999,"REV_AT_EPOCH":13592,"BSTAR":-0.0011997684,"MEAN_MOTION_DOT":-4.53e-6,"MEAN_MOTION_DDOT":0},{"OBJECT_NAME":"ONEWEB-0624","OBJECT_ID":"2023-004AB","EPOCH":"2025-10-19T18:06:41.108544","MEAN_MOTION":13.12916128,"ECCENTRICITY":0.00016132,"INCLINATION":87.8957,"RA_OF_ASC_NODE":38.3974,"ARG_OF_PERICENTER":92.2405,"MEAN_ANOMALY":267.8908,"EPHEMERIS_TYPE":0,"CLASSIFICATION_TYPE":"U","NORAD_CAT_ID":55165,"ELEMENT_SET_NO":999,"REV_AT_EPOCH":13652,"BSTAR":0.00088666513,"MEAN_MOTION_DOT":3.34e-6,"MEAN_MOTION_DDOT":0},{"OBJECT_NAME":"ONEWEB-0625","OBJECT_ID":"2023-004AC","EPOCH":"2025-10-19T21:32:54.768768","MEAN_MOTION":13.17648633,"ECCENTRICITY":0.00016055,"INCLINATION":87.9103,"RA_OF_ASC_NODE":53.666,"ARG_OF_PERICENTER":104.2887,"MEAN_ANOMALY":255.8423,"EPHEMERIS_TYPE":0,"CLASSIFICATION_TYPE":"U","NORAD_CAT_ID":55166,"ELEMENT_SET_NO":999,"REV_AT_EPOCH":13593,"BSTAR":-8.3794877e-5,"MEAN_MOTION_DOT":-2.0e-7,"MEAN_MOTION_DDOT":0},{"OBJECT_NAME":"ONEWEB-0626","OBJECT_ID":"2023-004AD","EPOCH":"2025-10-19T19:29:00.528288","MEAN_MOTION":13.17649403,"ECCENTRICITY":0.00021762,"INCLINATION":87.9104,"RA_OF_ASC_NODE":53.6821,"ARG_OF_PERICENTER":103.3414,"MEAN_ANOMALY":256.796,"EPHEMERIS_TYPE":0,"CLASSIFICATION_TYPE":"U","NORAD_CAT_ID":55167,"ELEMENT_SET_NO":999,"REV_AT_EPOCH":13592,"BSTAR":0.0001637257,"MEAN_MOTION_DOT":7.6e-7,"MEAN_MOTION_DDOT":0}]
